format  = 'OEF1.1'		! file format
rectype = ML			! record type: 1L = one line; ML = multi line
refsys  = ECLM J2000		! default reference system (optional)
epoch   = MJD 50400 0.0 TDT	! default epoch for orbital elements
END_OF_HEADER
! Masses from Hilton, J. L. 1997, New Asteroid Ephemerides for the Astronomical Almanac 
! Equinoctial elements: a, e*sin(LP), e*cos(LP), tan(i/2)*sin(LN), tan(i/2)*cos(LN), mean long.
1
 EQU   2.76694892447620E+00  0.035032802358988 -0.071994295570760  0.091331800837573  0.015420054270358 208.6308105476097
 MJD     53450.00000000 TDT
 MAS 4.39E-10
2
 EQU   2.77350204736280E+00  0.191584059204314 -0.127827929199729  0.037347508542240 -0.311627316828502 163.0760502467668
 MJD     53450.00000000 TDT
 MAS 1.59E-10
4
 EQU   2.36174241927124E+00 -0.085522335728365 -0.024190145241330  0.060492791870050 -0.015003727912924  31.9869066221645
 MJD     53450.00000000 TDT
 MAS 1.69E-10
